NORAD_CAT_ID,OBJECT_NAME,OBJECT_TYPE,EPOCH,MEAN_MOTION,ECCENTRICITY,INCLINATION,RA_OF_ASC_NODE,ARG_OF_PERICENTER,MEAN_ANOMALY,BSTAR,MEAN_MOTION_DOT,MEAN_MOTION_DDOT,TLE_LINE0,TLE_LINE1,TLE_LINE2,SEMIMAJOR_AXIS,PERIOD,APOGEE,PERIGEE,DECAYED
54202.0,STARLINK-5205,PAYLOAD,2024-01-08 01:31:22,15.08843482,0.0001466,53.2174,307.5565,103.6075,256.5081,0.00011656,1.568e-05,0.0,0 STARLINK-5205,1 54202U 22141AX  24008.06345083  .00001568  00000-0  11656-3 0  9998,2 54202  53.2174 307.5565 0001466 103.6075 256.5081 15.08843482 66492,6917.87,95.437,540.749,538.721,0.0
54202.0,STARLINK-5205,PAYLOAD,2024-01-09 02:57:32,15.08840299,0.0001451,53.2176,302.8007,83.2161,276.8997,5.5399e-05,5.94e-06,0.0,0 STARLINK-5205,1 54202U 22141AX  24009.12329690  .00000594  00000-0  55399-4 0  9993,2 54202  53.2176 302.8007 0001451  83.2161 276.8997 15.08840299 66883,6917.879,95.438,540.748,538.741,0.0
54202.0,STARLINK-5205,PAYLOAD,2024-01-09 04:32:55,15.08841388,0.0001434,53.2168,302.5046,89.7006,270.4151,9.0711e-05,1.156e-05,0.0,0 STARLINK-5205,1 54202U 22141AX  24009.18953491  .00001156  00000-0  90711-4 0  9993,2 54202  53.2168 302.5046 0001434  89.7006 270.4151 15.08841388 66662,6917.876,95.437,540.733,538.749,0.0
54202.0,STARLINK-5205,PAYLOAD,2024-01-10 04:23:42,15.08847146,0.0001671,53.2183,298.0341,103.7115,256.4064,0.00013709,1.895e-05,0.0,0 STARLINK-5205,1 54202U 22141AX  24010.18312940  .00001895  00000-0  13709-3 0  9994,2 54202  53.2183 298.0341 0001671 103.7115 256.4064 15.08847146 67045,6917.859,95.437,540.88,538.568,0.0
54202.0,STARLINK-5205,PAYLOAD,2024-01-11 01:03:43,15.08842051,0.0001796,53.2195,294.1667,87.2643,272.8554,4.9322e-05,4.97e-06,0.0,0 STARLINK-5205,1 54202U 22141AX  24011.04425657  .00000497  00000-0  49322-4 0  9998,2 54202  53.2195 294.1667 0001796  87.2643 272.8554 15.08842051 67176,6917.874,95.437,540.982,538.497,0.0
54202.0,STARLINK-5205,PAYLOAD,2024-01-11 04:14:30,15.08842286,0.0001741,53.2188,293.5761,89.2617,270.8574,4.9492e-05,5e-06,0.0,0 STARLINK-5205,1 54202U 22141AX  24011.17673641  .00000500  00000-0  49492-4 0  9993,2 54202  53.2188 293.5761 0001741  89.2617 270.8574 15.08842286 66965,6917.873,95.437,540.943,538.534,0.0
54202.0,STARLINK-5205,PAYLOAD,2024-01-11 21:43:44,15.08845158,0.0001707,53.2178,290.3072,106.6667,253.4513,-1.6289e-05,-5.47e-06,0.0,0 STARLINK-5205,1 54202U 22141AX  24011.90537616 -.00000547  00000-0 -16289-4 0  9996,2 54202  53.2178 290.3072 0001707 106.6667 253.4513 15.08845158 67079,6917.865,95.437,540.911,538.549,0.0
54202.0,STARLINK-5205,PAYLOAD,2024-01-12 04:05:16,15.08850925,0.0001481,53.218,289.1171,105.0832,255.0324,5.0612e-05,5.18e-06,0.0,0 STARLINK-5205,1 54202U 22141AX  24012.17032913  .00000518  00000-0  50612-4 0  9990,2 54202  53.2180 289.1171 0001481 105.0832 255.0324 15.08850925 67340,6917.847,95.437,540.737,538.687,0.0
54202.0,STARLINK-5205,PAYLOAD,2024-01-12 21:34:31,15.08836114,0.0001988,53.2182,285.845,125.6229,234.4949,1.8899e-05,1.3e-07,0.0,0 STARLINK-5205,1 54202U 22141AX  24012.89898147  .00000013  00000-0  18899-4 0  9999,2 54202  53.2182 285.8450 0001988 125.6229 234.4949 15.08836114 67220,6917.892,95.438,541.133,538.382,0.0
54202.0,STARLINK-5205,PAYLOAD,2024-01-13 03:56:04,15.08840206,0.0001526,53.2172,284.6577,119.1402,240.9743,3.4704e-05,2.64e-06,0.0,0 STARLINK-5205,1 54202U 22141AX  24013.16393945  .00000264  00000-0  34704-4 0  9997,2 54202  53.2172 284.6577 0001526 119.1402 240.9743 15.08840206 67495,6917.88,95.438,540.8,538.689,0.0
54202.0,STARLINK-5205,PAYLOAD,2024-01-14 03:46:51,15.08845922,0.000156,53.216,280.1972,120.496,239.6186,0.00010118,1.323e-05,0.0,0 STARLINK-5205,1 54202U 22141AX  24014.15753878  .00001323  00000-0  10118-3 0  9991,2 54202  53.2160 280.1972 0001560 120.4960 239.6186 15.08845922 67412,6917.862,95.437,540.806,538.648,0.0
54202.0,STARLINK-5205,PAYLOAD,2024-01-14 22:51:28,15.08868274,0.0001365,53.217,276.6284,110.0883,250.0256,-0.00051026,-8.406e-05,0.0,0 STARLINK-5205,1 54202U 22141AX  24014.95240758 -.00008406  00000-0 -51026-3 0  9991,2 54202  53.2170 276.6284 0001365 110.0883 250.0256 15.08868274 67534,6917.794,95.436,540.603,538.715,0.0
54202.0,STARLINK-5205,PAYLOAD,2024-01-15 16:20:43,15.08842668,0.0001466,53.2161,273.3623,102.7917,257.3239,0.00010733,1.421e-05,0.0,0 STARLINK-5205,1 54202U 22141AX  24015.68105986  .00001421  00000-0  10733-3 0  9993,2 54202  53.2161 273.3623 0001466 102.7917 257.3239 15.08842668 67870,6917.872,95.437,540.751,538.723,0.0
54202.0,STARLINK-5205,PAYLOAD,2024-01-15 21:06:53,15.08841129,0.0001671,53.2162,272.4673,113.4524,246.6644,-1.821e-06,-3.17e-06,0.0,0 STARLINK-5205,1 54202U 22141AX  24015.87978018 -.00000317  00000-0 -18210-5 0  9993,2 54202  53.2162 272.4673 0001671 113.4524 246.6644 15.08841129 67677,6917.877,95.437,540.898,538.586,0.0
54202.0,STARLINK-5205,PAYLOAD,2024-01-16 01:53:02,15.08842525,0.0001435,53.216,271.5751,89.3657,270.7499,3.4214e-05,2.57e-06,0.0,0 STARLINK-5205,1 54202U 22141AX  24016.07850040  .00000257  00000-0  34214-4 0  9992,2 54202  53.2160 271.5751 0001435  89.3657 270.7499 15.08842525 67709,6917.873,95.437,540.73,538.745,0.0
54202.0,STARLINK-5205,PAYLOAD,2024-01-16 16:11:31,15.08837358,0.0001531,53.2175,268.9044,71.9389,288.177,7.0913e-05,8.41e-06,0.0,0 STARLINK-5205,1 54202U 22141AX  24016.67466743  .00000841  00000-0  70913-4 0  9996,2 54202  53.2175 268.9044 0001531  71.9389 288.1770 15.08837358 68025,6917.888,95.438,540.813,538.694,0.0
54202.0,STARLINK-5205,PAYLOAD,2024-01-16 22:33:03,15.08845385,0.0001458,53.2177,267.7144,79.4976,280.6181,-5.9301e-05,-1.232e-05,0.0,0 STARLINK-5205,1 54202U 22141AX  24016.93962588 -.00001232  00000-0 -59301-4 0  9998,2 54202  53.2177 267.7144 0001458  79.4976 280.6181 15.08845385 67838,6917.864,95.437,540.738,538.72,0.0
54202.0,STARLINK-5205,PAYLOAD,2024-01-17 01:43:49,15.0885302,0.0001314,53.2167,267.1164,91.6204,268.4938,3.9823e-05,3.46e-06,0.0,0 STARLINK-5205,1 54202U 22141AX  24017.07209660  .00000346  00000-0  39823-4 0  9999,2 54202  53.2167 267.1164 0001314  91.6204 268.4938 15.08853020 68081,6917.841,95.437,540.615,538.797,0.0
54202.0,STARLINK-5205,PAYLOAD,2024-01-17 19:13:04,15.08833119,0.0001385,53.2159,263.8431,125.8535,234.2586,-4.2174e-05,-9.59e-06,0.0,0 STARLINK-5205,1 54202U 22141AX  24017.80074650 -.00000959  00000-0 -42174-4 0  9994,2 54202  53.2159 263.8431 0001385 125.8535 234.2586 15.08833119 68196,6917.901,95.438,540.725,538.808,0.0
54202.0,STARLINK-5205,PAYLOAD,2024-01-17 22:23:50,15.08839728,0.0001359,53.2159,263.2481,104.5558,255.5585,5.7326e-05,6.25e-06,0.0,0 STARLINK-5205,1 54202U 22141AX  24017.93322612  .00000625  00000-0  57326-4 0  9995,2 54202  53.2159 263.2481 0001359 104.5558 255.5585 15.08839728 67988,6917.881,95.438,540.686,538.806,0.0
54202.0,STARLINK-5205,PAYLOAD,2024-01-18 01:34:36,15.08840656,0.0001311,53.2159,262.6544,104.2298,255.8839,9.4075e-05,1.21e-05,0.0,0 STARLINK-5205,1 54202U 22141AX  24018.06570504  .00001210  00000-0  94075-4 0  9998,2 54202  53.2159 262.6544 0001311 104.2298 255.8839 15.08840656 68233,6917.878,95.438,540.65,538.836,0.0
54202.0,STARLINK-5205,PAYLOAD,2024-01-18 22:14:37,15.08846095,0.0001385,53.2149,258.7891,112.6774,247.4364,7.5874e-05,9.2e-06,0.0,0 STARLINK-5205,1 54202U 22141AX  24018.92682330  .00000920  00000-0  75874-4 0  9997,2 54202  53.2149 258.7891 0001385 112.6774 247.4364 15.08846095 68138,6917.862,95.437,540.685,538.769,0.0
54202.0,STARLINK-5205,PAYLOAD,2024-01-19 01:25:23,15.08847549,0.0001391,53.2152,258.1936,116.0154,244.0982,0.00010245,1.343e-05,0.0,0 STARLINK-5205,1 54202U 22141AX  24019.05930149  .00001343  00000-0  10245-3 0  9996,2 54202  53.2152 258.1936 0001391 116.0154 244.0982 15.08847549 68159,6917.857,95.437,540.685,538.76,0.0
54202.0,STARLINK-5205,PAYLOAD,2024-01-19 18:54:38,15.08842199,0.0001916,53.217,254.9175,125.9066,234.2104,3.4883e-05,2.67e-06,0.0,0 STARLINK-5205,1 54202U 22141AX  24019.78794790  .00000267  00000-0  34883-4 0  9995,2 54202  53.2170 254.9175 0001916 125.9066 234.2104 15.08842199 68492,6917.874,95.437,541.064,538.413,0.0
54202.0,STARLINK-5205,PAYLOAD,2024-01-19 22:05:24,15.08843072,0.0001691,53.2172,254.325,108.9916,251.1259,4.5316e-05,4.33e-06,0.0,0 STARLINK-5205,1 54202U 22141AX  24019.92042801  .00000433  00000-0  45316-4 0  9998,2 54202  53.2172 254.3250 0001691 108.9916 251.1259 15.08843072 68284,6917.871,95.437,540.906,538.566,0.0
54202.0,STARLINK-5205,PAYLOAD,2024-01-20 01:16:11,15.08839861,0.0001474,53.2167,253.7333,102.7371,257.3786,9.6884e-05,1.254e-05,0.0,0 STARLINK-5205,1 54202U 22141AX  24020.05290878  .00001254  00000-0  96884-4 0  9991,2 54202  53.2167 253.7333 0001474 102.7371 257.3786 15.08839861 68306,6917.881,95.438,540.766,538.726,0.0
54202.0,STARLINK-5205,PAYLOAD,2024-01-20 21:56:12,15.0884098,0.0001504,53.2168,249.8668,101.2439,258.8722,7.7086e-05,9.39e-06,0.0,0 STARLINK-5205,1 54202U 22141AX  24020.91402930  .00000939  00000-0  77086-4 0  9992,2 54202  53.2168 249.8668 0001504 101.2439 258.8722 15.08840980 68431,6917.877,95.437,540.783,538.702,0.0
54202.0,STARLINK-5205,PAYLOAD,2024-01-21 01:06:58,15.08840221,0.0001908,53.2159,249.2795,54.2891,305.8278,1.2956e-05,-8.2e-07,0.0,0 STARLINK-5205,1 54202U 22141AX  24021.04651420 -.00000082  00000-0  12956-4 0  9992,2 54202  53.2159 249.2795 0001908  54.2891 305.8278 15.08840221 68687,6917.88,95.438,541.065,538.425,0.0
54202.0,STARLINK-5205,PAYLOAD,2024-01-21 20:11:37,15.08831509,0.0001513,53.2162,245.7058,94.7381,265.3783,1.644e-05,-2.6e-07,0.0,0 STARLINK-5205,1 54202U 22141AX  24021.84140353 -.00000026  00000-0  16440-4 0  9998,2 54202  53.2162 245.7058 0001513  94.7381 265.3783 15.08831509 68803,6917.906,95.438,540.818,538.725,0.0
54202.0,STARLINK-5205,PAYLOAD,2024-01-21 21:47:00,15.08832393,0.0001541,53.2164,245.4083,96.7973,263.3194,2.4238e-05,9.8e-07,0.0,0 STARLINK-5205,1 54202U 22141AX  24021.90764266  .00000098  00000-0  24238-4 0  9992,2 54202  53.2164 245.4083 0001541  96.7973 263.3194 15.08832393 68581,6917.904,95.438,540.835,538.703,0.0
